{"type": "FeatureCollection", "features": [ {"type": "Feature", "properties": {"norad_id": 66677, "name": "TRANSPORTER-15M", "group": "last-30-days", "lat": -70.54814598964967, "lon": 90.49557608525743, "alt_km": 501.97760411399213, "timestamp": "2025-12-23T05:02:10.748877+00:00", "meta": {"OBJECT_NAME": "TRANSPORTER-15M", "OBJECT_ID": "2025-276M", "EPOCH": "2025-12-22T18:18:14.318208", "MEAN_MOTION": 15.21134629, "ECCENTRICITY": 0.00105541, "INCLINATION": 97.4384, "RA_OF_ASC_NODE": 68.3422, "ARG_OF_PERICENTER": 242.2487, "MEAN_ANOMALY": 117.7678, "EPHEMERIS_TYPE": 0, "CLASSIFICATION_TYPE": "U", "NORAD_CAT_ID": 66677, "ELEMENT_SET_NO": 999, "REV_AT_EPOCH": 364, "BSTAR": 0.044794033, "MEAN_MOTION_DOT": 0.01076501, "MEAN_MOTION_DDOT": 0}, "tle": {"line1": "1 66677U 25276M   25356.76266572  .01076501  00000+0  44794-1 0  9994", "line2": "2 66677  97.4384  68.3422 0010554 242.2487 117.7678 15.21134629  3642"}}, "geometry": {"type": "Point", "coordinates": [90.49557608525743, -70.54814598964967]}}, {"type": "Feature", "properties": {"norad_id": 66678, "name": "TRANSPORTER-15N", "group": "last-30-days", "lat": -50.87677796777492, "lon": -120.474927907494, "alt_km": 520.2670937644998, "timestamp": "2025-12-23T05:02:10.748888+00:00", "meta": {"OBJECT_NAME": "TRANSPORTER-15N", "OBJECT_ID": "2025-276N", "EPOCH": "2025-12-22T21:41:07.914912", "MEAN_MOTION": 15.16776668, "ECCENTRICITY": 0.00042318, "INCLINATION": 97.443, "RA_OF_ASC_NODE": 68.4738, "ARG_OF_PERICENTER": 268.6719, "MEAN_ANOMALY": 91.403, "EPHEMERIS_TYPE": 0, "CLASSIFICATION_TYPE": "U", "NORAD_CAT_ID": 66678, "ELEMENT_SET_NO": 999, "REV_AT_EPOCH": 366, "BSTAR": -0.0015547971, "MEAN_MOTION_DOT": -0.00030448, "MEAN_MOTION_DDOT": 0}, "tle": {"line1": "1 66678U 25276N   25356.90356383 -.00030448  00000+0 -15548-2 0  9998", "line2": "2 66678  97.4430  68.4738 0004231 268.6719  91.4030 15.16776668  3662"}}, "geometry": {"type": "Point", "coordinates": [-120.474927907494, -50.87677796777492]}}, {"type": "Feature", "properties": {"norad_id": 66679, "name": "TRANSPORTER-15P", "group": "last-30-days", "lat": -44.06975298548029, "lon": -118.5111187802719, "alt_km": 519.8838826807278, "timestamp": "2025-12-23T05:02:10.748900+00:00", "meta": {"OBJECT_NAME": "TRANSPORTER-15P", "OBJECT_ID": "2025-276P", "EPOCH": "2025-12-22T16:57:55.829088", "MEAN_MOTION": 15.16688876, "ECCENTRICITY": 0.00046567, "INCLINATION": 97.4366, "RA_OF_ASC_NODE": 68.2598, "ARG_OF_PERICENTER": 258.8192, "MEAN_ANOMALY": 101.2518, "EPHEMERIS_TYPE": 0, "CLASSIFICATION_TYPE": "U", "NORAD_CAT_ID": 66679, "ELEMENT_SET_NO": 999, "REV_AT_EPOCH": 363, "BSTAR": 0.00025077063, "MEAN_MOTION_DOT": 4.846e-05, "MEAN_MOTION_DDOT": 0}, "tle": {"line1": "1 66679U 25276P   25356.70689617  .00004846  00000+0  25077-3 0  9996", "line2": "2 66679  97.4366  68.2598 0004656 258.8192 101.2518 15.16688876  3631"}}, "geometry": {"type": "Point", "coordinates": [-118.5111187802719, -44.06975298548029]}}, {"type": "Feature", "properties": {"norad_id": 66680, "name": "TRANSPORTER-15Q", "group": "last-30-days", "lat": -52.03758654159554, "lon": -120.87282368046978, "alt_km": 519.2930220292883, "timestamp": "2025-12-23T05:02:10.748910+00:00", "meta": {"OBJECT_NAME": "TRANSPORTER-15Q", "OBJECT_ID": "2025-276Q", "EPOCH": "2025-12-22T21:40:50.315232", "MEAN_MOTION": 15.16824291, "ECCENTRICITY": 0.00047387, "INCLINATION": 97.4409, "RA_OF_ASC_NODE": 68.4693, "ARG_OF_PERICENTER": 249.8636, "MEAN_ANOMALY": 110.2088, "EPHEMERIS_TYPE": 0, "CLASSIFICATION_TYPE": "U", "NORAD_CAT_ID": 66680, "ELEMENT_SET_NO": 999, "REV_AT_EPOCH": 366, "BSTAR": 0.00049945703, "MEAN_MOTION_DOT": 9.762e-05, "MEAN_MOTION_DDOT": 0}, "tle": {"line1": "1 66680U 25276Q   25356.90336013  .00009762  00000+0  49946-3 0  9992", "line2": "2 66680  97.4409  68.4693 0004738 249.8636 110.2088 15.16824291  3661"}}, "geometry": {"type": "Point", "coordinates": [-120.87282368046978, -52.03758654159554]}}, {"type": "Feature", "properties": {"norad_id": 66681, "name": "TRANSPORTER-15R", "group": "last-30-days", "lat": -78.31270962304345, "lon": -150.37744077794852, "alt_km": 517.5415232279738, "timestamp": "2025-12-23T05:02:10.748920+00:00", "meta": {"OBJECT_NAME": "TRANSPORTER-15R", "OBJECT_ID": "2025-276R", "EPOCH": "2025-12-22T21:33:32.268960", "MEAN_MOTION": 15.17437433, "ECCENTRICITY": 0.00050103, "INCLINATION": 97.4335, "RA_OF_ASC_NODE": 68.4532, "ARG_OF_PERICENTER": 274.9871, "MEAN_ANOMALY": 85.0791, "EPHEMERIS_TYPE": 0, "CLASSIFICATION_TYPE": "U", "NORAD_CAT_ID": 66681, "ELEMENT_SET_NO": 999, "REV_AT_EPOCH": 366, "BSTAR": 0.0009576393, "MEAN_MOTION_DOT": 0.00019134, "MEAN_MOTION_DDOT": 0}, "tle": {"line1": "1 66681U 25276R   25356.89829015  .00019134  00000+0  95764-3 0  9993", "line2": "2 66681  97.4335  68.4532 0005010 274.9871  85.0791 15.17437433  3665"}}, "geometry": {"type": "Point", "coordinates": [-150.37744077794852, -78.31270962304345]}}, {"type": "Feature", "properties": {"norad_id": 66682, "name": "TRANSPORTER-15S", "group": "last-30-days", "lat": -67.09792994262975, "lon": -129.24235830859098, "alt_km": 518.3979854880863, "timestamp": "2025-12-23T05:02:10.748930+00:00", "meta": {"OBJECT_NAME": "TRANSPORTER-15S", "OBJECT_ID": "2025-276S", "EPOCH": "2025-12-22T21:36:49.005216", "MEAN_MOTION": 15.17152975, "ECCENTRICITY": 0.00048048, "INCLINATION": 97.4453, "RA_OF_ASC_NODE": 68.4859, "ARG_OF_PERICENTER": 238.3399, "MEAN_ANOMALY": 121.7367, "EPHEMERIS_TYPE": 0, "CLASSIFICATION_TYPE": "U", "NORAD_CAT_ID": 66682, "ELEMENT_SET_NO": 999, "REV_AT_EPOCH": 366, "BSTAR": 0.001881498, "MEAN_MOTION_DOT": 0.00037444, "MEAN_MOTION_DDOT": 0}, "tle": {"line1": "1 66682U 25276S   25356.90056719  .00037444  00000+0  18815-2 0  9994", "line2": "2 66682  97.4453  68.4859 0004804 238.3399 121.7367 15.17152975  3660"}}, "geometry": {"type": "Point", "coordinates": [-129.24235830859098, -67.09792994262975]}}, {"type": "Feature", "properties": {"norad_id": 66683, "name": "TRANSPORTER-15T", "group": "last-30-days", "lat": -62.61894179744948, "lon": -125.83740410683173, "alt_km": 518.7671681705515, "timestamp": "2025-12-23T05:02:10.748940+00:00", "meta": {"OBJECT_NAME": "TRANSPORTER-15T", "OBJECT_ID": "2025-276T", "EPOCH": "2025-12-22T21:38:01.006656", "MEAN_MOTION": 15.17019165, "ECCENTRICITY": 0.0004761, "INCLINATION": 97.4448, "RA_OF_ASC_NODE": 68.4835, "ARG_OF_PERICENTER": 242.3592, "MEAN_ANOMALY": 117.7158, "EPHEMERIS_TYPE": 0, "CLASSIFICATION_TYPE": "U", "NORAD_CAT_ID": 66683, "ELEMENT_SET_NO": 999, "REV_AT_EPOCH": 366, "BSTAR": 0.00063420552, "MEAN_MOTION_DOT": 0.00012487, "MEAN_MOTION_DDOT": 0}, "tle": {"line1": "1 66683U 25276T   25356.90140054  .00012487  00000+0  63421-3 0  9995", "line2": "2 66683  97.4448  68.4835 0004761 242.3592 117.7158 15.17019165  3667"}}, "geometry": {"type": "Point", "coordinates": [-125.83740410683173, -62.61894179744948]}}, {"type": "Feature", "properties": {"norad_id": 66684, "name": "TRANSPORTER-15U", "group": "last-30-days", "lat": -78.39996886097298, "lon": -150.78618902377482, "alt_km": 518.3600601018434, "timestamp": "2025-12-23T05:02:10.748951+00:00", "meta": {"OBJECT_NAME": "TRANSPORTER-15U", "OBJECT_ID": "2025-276U", "EPOCH": "2025-12-22T21:33:28.768032", "MEAN_MOTION": 15.17314156, "ECCENTRICITY": 0.00045798, "INCLINATION": 97.4474, "RA_OF_ASC_NODE": 68.4948, "ARG_OF_PERICENTER": 240.335, "MEAN_ANOMALY": 119.7428, "EPHEMERIS_TYPE": 0, "CLASSIFICATION_TYPE": "U", "NORAD_CAT_ID": 66684, "ELEMENT_SET_NO": 999, "REV_AT_EPOCH": 366, "BSTAR": 0.00069483358, "MEAN_MOTION_DOT": 0.00013805, "MEAN_MOTION_DDOT": 0}, "tle": {"line1": "1 66684U 25276U   25356.89824963  .00013805  00000+0  69483-3 0  9991", "line2": "2 66684  97.4474  68.4948 0004579 240.3350 119.7428 15.17314156  3669"}}, "geometry": {"type": "Point", "coordinates": [-150.78618902377482, -78.39996886097298]}}, {"type": "Feature", "properties": {"norad_id": 66685, "name": "TRANSPORTER-15V", "group": "last-30-days", "lat": -82.3711432981573, "lon": 171.3938922250899, "alt_km": 517.9961732594384, "timestamp": "2025-12-23T05:02:10.748973+00:00", "meta": {"OBJECT_NAME": "TRANSPORTER-15V", "OBJECT_ID": "2025-276V", "EPOCH": "2025-12-22T21:31:36.068736", "MEAN_MOTION": 15.17460838, "ECCENTRICITY": 0.000417, "INCLINATION": 97.4419, "RA_OF_ASC_NODE": 68.4797, "ARG_OF_PERICENTER": 262.6839, "MEAN_ANOMALY": 97.3921, "EPHEMERIS_TYPE": 0, "CLASSIFICATION_TYPE": "U", "NORAD_CAT_ID": 66685, "ELEMENT_SET_NO": 999, "REV_AT_EPOCH": 366, "BSTAR": 0.00093761064, "MEAN_MOTION_DOT": 0.00018742, "MEAN_MOTION_DDOT": 0}, "tle": {"line1": "1 66685U 25276V   25356.89694524  .00018742  00000+0  93761-3 0  9991", "line2": "2 66685  97.4419  68.4797 0004170 262.6839  97.3921 15.17460838  3665"}}, "geometry": {"type": "Point", "coordinates": [171.3938922250899, -82.3711432981573]}}, {"type": "Feature", "properties": {"norad_id": 66686, "name": "TRANSPORTER-15W", "group": "last-30-days", "lat": -65.10063428997995, "lon": -127.5727018476831, "alt_km": 525.8590959450921, "timestamp": "2025-12-23T05:02:10.748987+00:00", "meta": {"OBJECT_NAME": "TRANSPORTER-15W", "OBJECT_ID": "2025-276W", "EPOCH": "2025-12-22T18:27:08.785152", "MEAN_MOTION": 15.16529805, "ECCENTRICITY": 0.00045609, "INCLINATION": 97.443, "RA_OF_ASC_NODE": 68.353, "ARG_OF_PERICENTER": 17.6157, "MEAN_ANOMALY": 342.5234, "EPHEMERIS_TYPE": 0, "CLASSIFICATION_TYPE": "U", "NORAD_CAT_ID": 66686, "ELEMENT_SET_NO": 999, "REV_AT_EPOCH": 364, "BSTAR": -0.0047229509, "MEAN_MOTION_DOT": -0.00090963, "MEAN_MOTION_DDOT": 0}, "tle": {"line1": "1 66686U 25276W   25356.76885168 -.00090963  00000+0 -47230-2 0  9990", "line2": "2 66686  97.4430  68.3530 0004560  17.6157 342.5234 15.16529805  3646"}}, "geometry": {"type": "Point", "coordinates": [-127.5727018476831, -65.10063428997995]}}]}